41917,IRIDIUM 106,2017,100.4,860.0,+,86.39,Active,1,LEO,USA,USA,Commercial/Government,Communications,Falcon,1 41917U 17003A   24038.57058132  .00000049  00000+0  10548-4 0  9995,2 41917  86.3930  88.2080 0002076 103.3860 256.7567 14.34217796369858,14.34217796,0.0002076,LEO
41918,IRIDIUM 103,2017,100.4,860.0,+,86.39,Active,1,LEO,USA,USA,Commercial/Government,Communications,Falcon,1 41918U 17003B   24038.83696978  .00000251  00000+0  82403-4 0  9995,2 41918  86.3931  87.9990 0001963  85.9354 274.2067 14.34217554369923,14.34217554,0.0001963,LEO
41919,IRIDIUM 109,2017,100.4,860.0,+,86.39,Active,1,LEO,USA,USA,Commercial/Government,Communications,Falcon,1 41919U 17003C   24038.77354497  .00000163  00000+0  51125-4 0  9995,2 41919  86.3930  88.0706 0002325  87.6573 272.4889 14.34217895369891,14.34217895,0.0002325,LEO
41920,IRIDIUM 102,2017,100.4,860.0,+,86.39,Active,1,LEO,USA,USA,Commercial/Government,Communications,Falcon,1 41920U 17003D   24038.53252557  .00000163  00000+0  51248-4 0  9991,2 41920  86.3930  88.1131 0002234  89.8064 270.3388 14.34218305369926,14.34218305,0.0002234,LEO
41921,IRIDIUM 105,2017,100.4,860.0,+,86.39,Active,1,LEO,USA,USA,Commercial/Government,Communications,Falcon,1 41921U 17003E   24038.57294993  .00000286  00000+0  94944-4 0  9992,2 41921  86.3931  56.4929 0002164  89.6762 270.4682 14.34232202371783,14.34232202,0.0002164,LEO
41922,IRIDIUM 104,2017,100.4,860.0,+,86.39,Active,1,LEO,USA,USA,Commercial/Government,Communications,Falcon,1 41922U 17003F   24038.68474850  .00000124  00000+0  37267-4 0  9993,2 41922  86.3931  88.0792 0002187  88.7890 271.3556 14.34218263369935,14.34218263,0.0002187,LEO
41923,IRIDIUM 114,2017,100.4,860.0,+,86.39,Active,1,LEO,USA,USA,Commercial/Government,Communications,Falcon,1 41923U 17003G   24038.83062651  .00000104  00000+0  30022-4 0  9993,2 41923  86.3929  88.0047 0002181 101.3110 258.8331 14.34219695369950,14.34219695,0.0002181,LEO
41924,IRIDIUM 108,2017,100.4,860.0,+,86.39,Active,1,LEO,USA,USA,Commercial/Government,Communications,Falcon,1 41924U 17003H   24038.57984284  .00000254  00000+0  83568-4 0  9999,2 41924  86.3924  56.4229 0002126  98.6276 261.5161 14.34217956371758,14.34217956,0.0002126,LEO
